{
  "type": "FeatureCollection",
  "generator": "overpass-turbo",
  "copyright": "The data included in this document is from www.openstreetmap.org. The data is made available under ODbL.",
  "timestamp": "2026-08-13T02:08:58Z",
  "features": [
    {
      "type": "Feature",
      "properties": {
        "@id": "way/1189921324",
        "building": "university"
      },
      "geometry": {
        "type": "Polygon",
        "coordinates": [
          [
            [
              127.1591533,
              37.8707101
            ],
            [
              127.1590482,
              37.8706094
            ],
            [
              127.1591894,
              37.8705175
            ],
            [
              127.1588097,
              37.8701536
            ],
            [
              127.1589768,
              37.870045
            ],
            [
              127.1594076,
              37.8704581
            ],
            [
              127.1593642,
              37.8704863
            ],
            [
              127.1594181,
              37.8705379
            ],
            [
              127.1591533,
              37.8707101
            ]
          ]
        ]
      },
      "id": "way/1189921324"
    },
    {
      "type": "Feature",
      "properties": {
        "@id": "way/1189921325",
        "building": "university"
      },
      "geometry": {
        "type": "Polygon",
        "coordinates": [
          [
            [
              127.1586203,
              37.8707557
            ],
            [
              127.1582993,
              37.870456
            ],
            [
              127.1585908,
              37.8702614
            ],
            [
              127.1589119,
              37.8705612
            ],
            [
              127.1586203,
              37.8707557
            ]
          ]
        ]
      },
      "id": "way/1189921325"
    },
    {
      "type": "Feature",
      "properties": {
        "@id": "way/1189921328",
        "building": "university"
      },
      "geometry": {
        "type": "Polygon",
        "coordinates": [
          [
            [
              127.1583777,
              37.8711441
            ],
            [
              127.1582986,
              37.8710621
            ],
            [
              127.15837,
              37.8710191
            ],
            [
              127.1579366,
              37.8705699
            ],
            [
              127.1578771,
              37.8706057
            ],
            [
              127.1577982,
              37.870524
            ],
            [
              127.1579484,
              37.8704337
            ],
            [
              127.15854,
              37.8710465
            ],
            [
              127.1583777,
              37.8711441
            ]
          ]
        ]
      },
      "id": "way/1189921328"
    },
    {
      "type": "Feature",
      "properties": {
        "@id": "way/1189921331",
        "building": "university"
      },
      "geometry": {
        "type": "Polygon",
        "coordinates": [
          [
            [
              127.1590987,
              37.870926
            ],
            [
              127.1588536,
              37.8706657
            ],
            [
              127.1589509,
              37.8706086
            ],
            [
              127.1591959,
              37.870869
            ],
            [
              127.1590987,
              37.870926
            ]
          ]
        ]
      },
      "id": "way/1189921331"
    },
    {
      "type": "Feature",
      "properties": {
        "@id": "way/1189924007",
        "building": "university"
      },
      "geometry": {
        "type": "Polygon",
        "coordinates": [
          [
            [
              127.1575704,
              37.871678
            ],
            [
              127.1569796,
              37.8710501
            ],
            [
              127.1571788,
              37.8709332
            ],
            [
              127.1577699,
              37.871561
            ],
            [
              127.1575704,
              37.871678
            ]
          ]
        ]
      },
      "id": "way/1189924007"
    },
    {
      "type": "Feature",
      "properties": {
        "@id": "way/1189924009",
        "building": "university"
      },
      "geometry": {
        "type": "Polygon",
        "coordinates": [
          [
            [
              127.1573709,
              37.8698322
            ],
            [
              127.1574344,
              37.8697916
            ],
            [
              127.1574507,
              37.8698075
            ],
            [
              127.1575557,
              37.8697404
            ],
            [
              127.1578652,
              37.870042
            ],
            [
              127.1576968,
              37.8701497
            ],
            [
              127.1573709,
              37.8698322
            ]
          ]
        ]
      },
      "id": "way/1189924009"
    },
    {
      "type": "Feature",
      "properties": {
        "@id": "way/1189924013",
        "building": "university"
      },
      "geometry": {
        "type": "Polygon",
        "coordinates": [
          [
            [
              127.1569777,
              37.8701053
            ],
            [
              127.1568565,
              37.8701823
            ],
            [
              127.1571704,
              37.8704904
            ],
            [
              127.1569831,
              37.8706093
            ],
            [
              127.1565346,
              37.8701692
            ],
            [
              127.1568431,
              37.8699733
            ],
            [
              127.1569777,
              37.8701053
            ]
          ]
        ]
      },
      "id": "way/1189924013"
    },
    {
      "type": "Feature",
      "properties": {
        "@id": "way/1189924017",
        "building": "university"
      },
      "geometry": {
        "type": "Polygon",
        "coordinates": [
          [
            [
              127.1558405,
              37.8705969
            ],
            [
              127.1560302,
              37.8704817
            ],
            [
              127.1564664,
              37.8709294
            ],
            [
              127.1562768,
              37.8710445
            ],
            [
              127.1558405,
              37.8705969
            ]
          ]
        ]
      },
      "id": "way/1189924017"
    },
    {
      "type": "Feature",
      "properties": {
        "@id": "way/1189924021",
        "building": "university"
      },
      "geometry": {
        "type": "Polygon",
        "coordinates": [
          [
            [
              127.1556483,
              37.8714041
            ],
            [
              127.1554443,
              37.8711983
            ],
            [
              127.1551137,
              37.8714026
            ],
            [
              127.1553149,
              37.8716055
            ],
            [
              127.1551932,
              37.8716807
            ],
            [
              127.1548289,
              37.8713131
            ],
            [
              127.1554132,
              37.8709523
            ],
            [
              127.1557802,
              37.8713226
            ],
            [
              127.1556483,
              37.8714041
            ]
          ]
        ]
      },
      "id": "way/1189924021"
    },
    {
      "type": "Feature",
      "properties": {
        "@id": "way/1189924024",
        "building": "university"
      },
      "geometry": {
        "type": "Polygon",
        "coordinates": [
          [
            [
              127.1543134,
              37.8723915
            ],
            [
              127.1544703,
              37.8722801
            ],
            [
              127.1545643,
              37.8723627
            ],
            [
              127.1544914,
              37.8724144
            ],
            [
              127.1545918,
              37.8725027
            ],
            [
              127.1545078,
              37.8725622
            ],
            [
              127.1543134,
              37.8723915
            ]
          ]
        ]
      },
      "id": "way/1189924024"
    },
    {
      "type": "Feature",
      "properties": {
        "@id": "way/1189924025",
        "building": "university"
      },
      "geometry": {
        "type": "Polygon",
        "coordinates": [
          [
            [
              127.1564265,
              37.8715373
            ],
            [
              127.1563106,
              37.8716033
            ],
            [
              127.1568124,
              37.872152
            ],
            [
              127.1569222,
              37.8720894
            ],
            [
              127.1570331,
              37.8722106
            ],
            [
              127.1568166,
              37.872334
            ],
            [
              127.1567749,
              37.8722884
            ],
            [
              127.1566958,
              37.8723335
            ],
            [
              127.1560707,
              37.8716503
            ],
            [
              127.1561657,
              37.8715962
            ],
            [
              127.1561292,
              37.8715563
            ],
            [
              127.1563361,
              37.8714384
            ],
            [
              127.1564265,
              37.8715373
            ]
          ]
        ]
      },
      "id": "way/1189924025"
    },
    {
      "type": "Feature",
      "properties": {
        "@id": "way/1189924033",
        "building": "university"
      },
      "geometry": {
        "type": "Polygon",
        "coordinates": [
          [
            [
              127.155401,
              37.8728853
            ],
            [
              127.1556152,
              37.8727458
            ],
            [
              127.1560544,
              37.873166
            ],
            [
              127.1558403,
              37.8733055
            ],
            [
              127.155401,
              37.8728853
            ]
          ]
        ]
      },
      "id": "way/1189924033"
    },
    {
      "type": "Feature",
      "properties": {
        "@id": "way/1189924037",
        "building": "university"
      },
      "geometry": {
        "type": "Polygon",
        "coordinates": [
          [
            [
              127.1545236,
              37.8741322
            ],
            [
              127.1540831,
              37.8737528
            ],
            [
              127.1542613,
              37.8736239
            ],
            [
              127.1547018,
              37.8740033
            ],
            [
              127.1545236,
              37.8741322
            ]
          ]
        ]
      },
      "id": "way/1189924037"
    },
    {
      "type": "Feature",
      "properties": {
        "@id": "way/1189924041",
        "building": "university"
      },
      "geometry": {
        "type": "Polygon",
        "coordinates": [
          [
            [
              127.1547579,
              37.8743735
            ],
            [
              127.1549595,
              37.8742407
            ],
            [
              127.1550864,
              37.8743608
            ],
            [
              127.155049,
              37.8743854
            ],
            [
              127.1557047,
              37.8750058
            ],
            [
              127.1557298,
              37.8749893
            ],
            [
              127.1558693,
              37.8751213
            ],
            [
              127.1556753,
              37.8752491
            ],
            [
              127.1552592,
              37.8748552
            ],
            [
              127.1552869,
              37.8748369
            ],
            [
              127.1551747,
              37.8747308
            ],
            [
              127.1551517,
              37.874746
            ],
            [
              127.1547579,
              37.8743735
            ]
          ]
        ]
      },
      "id": "way/1189924041"
    },
    {
      "type": "Feature",
      "properties": {
        "@id": "way/1189924042",
        "building": "university"
      },
      "geometry": {
        "type": "Polygon",
        "coordinates": [
          [
            [
              127.1553015,
              37.8740235
            ],
            [
              127.1555031,
              37.8738907
            ],
            [
              127.15563,
              37.8740108
            ],
            [
              127.1555925,
              37.8740354
            ],
            [
              127.1562483,
              37.8746558
            ],
            [
              127.1562734,
              37.8746393
            ],
            [
              127.1564129,
              37.8747713
            ],
            [
              127.1562189,
              37.874899
            ],
            [
              127.1558028,
              37.8745052
            ],
            [
              127.1558305,
              37.8744869
            ],
            [
              127.1557183,
              37.8743808
            ],
            [
              127.1556953,
              37.8743959
            ],
            [
              127.1553015,
              37.8740235
            ]
          ]
        ]
      },
      "id": "way/1189924042"
    },
    {
      "type": "Feature",
      "properties": {
        "@id": "way/1189924043",
        "building": "university"
      },
      "geometry": {
        "type": "Polygon",
        "coordinates": [
          [
            [
              127.1557026,
              37.8737368
            ],
            [
              127.1559042,
              37.873604
            ],
            [
              127.1560311,
              37.8737241
            ],
            [
              127.1559937,
              37.8737487
            ],
            [
              127.1566495,
              37.8743691
            ],
            [
              127.1566745,
              37.8743526
            ],
            [
              127.1568141,
              37.8744846
            ],
            [
              127.15662,
              37.8746124
            ],
            [
              127.1562039,
              37.8742185
            ],
            [
              127.1562316,
              37.8742002
            ],
            [
              127.1561194,
              37.8740941
            ],
            [
              127.1560964,
              37.8741093
            ],
            [
              127.1557026,
              37.8737368
            ]
          ]
        ]
      },
      "id": "way/1189924043"
    },
    {
      "type": "Feature",
      "properties": {
        "@id": "way/1189924050",
        "building": "university"
      },
      "geometry": {
        "type": "Polygon",
        "coordinates": [
          [
            [
              127.1543268,
              37.8746493
            ],
            [
              127.1545127,
              37.8745202
            ],
            [
              127.154857,
              37.8748293
            ],
            [
              127.154671,
              37.8749584
            ],
            [
              127.1543268,
              37.8746493
            ]
          ]
        ]
      },
      "id": "way/1189924050"
    },
    {
      "type": "Feature",
      "properties": {
        "@id": "way/1189924052",
        "building": "university"
      },
      "geometry": {
        "type": "Polygon",
        "coordinates": [
          [
            [
              127.1551099,
              37.8752797
            ],
            [
              127.1552087,
              37.8752167
            ],
            [
              127.1554048,
              37.8754081
            ],
            [
              127.155306,
              37.8754711
            ],
            [
              127.1551099,
              37.8752797
            ]
          ]
        ]
      },
      "id": "way/1189924052"
    },
    {
      "type": "Feature",
      "properties": {
        "@id": "way/1189924053",
        "building": "university"
      },
      "geometry": {
        "type": "Polygon",
        "coordinates": [
          [
            [
              127.1543475,
              37.8750533
            ],
            [
              127.1542327,
              37.8749484
            ],
            [
              127.154352,
              37.8748671
            ],
            [
              127.1544668,
              37.8749721
            ],
            [
              127.1543475,
              37.8750533
            ]
          ]
        ]
      },
      "id": "way/1189924053"
    },
    {
      "type": "Feature",
      "properties": {
        "@id": "way/1189924058",
        "building": "university"
      },
      "geometry": {
        "type": "Polygon",
        "coordinates": [
          [
            [
              127.1593302,
              37.8754478
            ],
            [
              127.1590581,
              37.8751787
            ],
            [
              127.1592,
              37.8750893
            ],
            [
              127.1594722,
              37.8753583
            ],
            [
              127.1593302,
              37.8754478
            ]
          ]
        ]
      },
      "id": "way/1189924058"
    },
    {
      "type": "Feature",
      "properties": {
        "@id": "way/1189924060",
        "building": "university"
      },
      "geometry": {
        "type": "Polygon",
        "coordinates": [
          [
            [
              127.1571333,
              37.8726981
            ],
            [
              127.1573297,
              37.8725867
            ],
            [
              127.1576611,
              37.8729508
            ],
            [
              127.1574646,
              37.8730622
            ],
            [
              127.1571333,
              37.8726981
            ]
          ]
        ]
      },
      "id": "way/1189924060"
    },
    {
      "type": "Feature",
      "properties": {
        "@id": "way/1189924063",
        "building": "dormitory"
      },
      "geometry": {
        "type": "Polygon",
        "coordinates": [
          [
            [
              127.1574061,
              37.873679
            ],
            [
              127.1575064,
              37.8736444
            ],
            [
              127.1577236,
              37.8740359
            ],
            [
              127.1576231,
              37.8740706
            ],
            [
              127.1574061,
              37.873679
            ]
          ]
        ]
      },
      "id": "way/1189924063"
    },
    {
      "type": "Feature",
      "properties": {
        "@id": "way/1189924064",
        "building": "dormitory"
      },
      "geometry": {
        "type": "Polygon",
        "coordinates": [
          [
            [
              127.1576645,
              37.8741555
            ],
            [
              127.1577649,
              37.8741209
            ],
            [
              127.1579821,
              37.8745124
            ],
            [
              127.1578816,
              37.8745471
            ],
            [
              127.1576645,
              37.8741555
            ]
          ]
        ]
      },
      "id": "way/1189924064"
    },
    {
      "type": "Feature",
      "properties": {
        "@id": "way/1189924065",
        "building": "dormitory"
      },
      "geometry": {
        "type": "Polygon",
        "coordinates": [
          [
            [
              127.1579394,
              37.8740636
            ],
            [
              127.1580397,
              37.8740289
            ],
            [
              127.1582569,
              37.8744204
            ],
            [
              127.1581564,
              37.8744552
            ],
            [
              127.1579394,
              37.8740636
            ]
          ]
        ]
      },
      "id": "way/1189924065"
    },
    {
      "type": "Feature",
      "properties": {
        "@id": "way/1189924066",
        "building": "dormitory"
      },
      "geometry": {
        "type": "Polygon",
        "coordinates": [
          [
            [
              127.1582415,
              37.874051
            ],
            [
              127.1583418,
              37.8740163
            ],
            [
              127.158559,
              37.8744078
            ],
            [
              127.1584586,
              37.8744426
            ],
            [
              127.1582415,
              37.874051
            ]
          ]
        ]
      },
      "id": "way/1189924066"
    },
    {
      "type": "Feature",
      "properties": {
        "@id": "way/1189924067",
        "building": "dormitory"
      },
      "geometry": {
        "type": "Polygon",
        "coordinates": [
          [
            [
              127.1585378,
              37.8739937
            ],
            [
              127.1586381,
              37.873959
            ],
            [
              127.1588553,
              37.8743505
            ],
            [
              127.1587548,
              37.8743852
            ],
            [
              127.1585378,
              37.8739937
            ]
          ]
        ]
      },
      "id": "way/1189924067"
    },
    {
      "type": "Feature",
      "properties": {
        "@id": "way/1189924068",
        "building": "dormitory"
      },
      "geometry": {
        "type": "Polygon",
        "coordinates": [
          [
            [
              127.1588297,
              37.873879
            ],
            [
              127.1589301,
              37.8738443
            ],
            [
              127.1591472,
              37.8742359
            ],
            [
              127.1590468,
              37.8742706
            ],
            [
              127.1588297,
              37.873879
            ]
          ]
        ]
      },
      "id": "way/1189924068"
    },
    {
      "type": "Feature",
      "properties": {
        "@id": "way/1189924069",
        "building": "dormitory"
      },
      "geometry": {
        "type": "Polygon",
        "coordinates": [
          [
            [
              127.1578436,
              37.8739802
            ],
            [
              127.1578071,
              37.8739121
            ],
            [
              127.1579339,
              37.8738697
            ],
            [
              127.1577987,
              37.8736178
            ],
            [
              127.1576722,
              37.8736601
            ],
            [
              127.1576302,
              37.8735818
            ],
            [
              127.1578544,
              37.8735069
            ],
            [
              127.1580682,
              37.8739051
            ],
            [
              127.1578436,
              37.8739802
            ]
          ]
        ]
      },
      "id": "way/1189924069"
    },
    {
      "type": "Feature",
      "properties": {
        "@id": "way/1189924070",
        "building": "university"
      },
      "geometry": {
        "type": "Polygon",
        "coordinates": [
          [
            [
              127.1593294,
              37.8744145
            ],
            [
              127.1591846,
              37.8741323
            ],
            [
              127.159405,
              37.8740618
            ],
            [
              127.1595498,
              37.874344
            ],
            [
              127.1593294,
              37.8744145
            ]
          ]
        ]
      },
      "id": "way/1189924070"
    },
    {
      "type": "Feature",
      "properties": {
        "@id": "way/1189924081",
        "building": "university"
      },
      "geometry": {
        "type": "Polygon",
        "coordinates": [
          [
            [
              127.1593663,
              37.8750483
            ],
            [
              127.159712,
              37.8748203
            ],
            [
              127.1598456,
              37.8749465
            ],
            [
              127.1597403,
              37.8750159
            ],
            [
              127.1602575,
              37.8755047
            ],
            [
              127.1603527,
              37.8754419
            ],
            [
              127.1604767,
              37.8755591
            ],
            [
              127.1601385,
              37.875782
            ],
            [
              127.1600119,
              37.8756623
            ],
            [
              127.1599805,
              37.8756829
            ],
            [
              127.159464,
              37.875194
            ],
            [
              127.1594901,
              37.8751653
            ],
            [
              127.1593663,
              37.8750483
            ]
          ]
        ]
      },
      "id": "way/1189924081"
    },
    {
      "type": "Feature",
      "properties": {
        "@id": "way/471499232",
        "highway": "service"
      },
      "geometry": {
        "type": "LineString",
        "coordinates": [
          [
            127.1571964,
            37.8662981
          ],
          [
            127.1573274,
            37.8665439
          ],
          [
            127.1574981,
            37.8666921
          ],
          [
            127.15762,
            37.8668788
          ],
          [
            127.1580126,
            37.8675967
          ],
          [
            127.1580835,
            37.8677202
          ],
          [
            127.1582011,
            37.8679278
          ],
          [
            127.1582624,
            37.868076
          ],
          [
            127.1582856,
            37.8682063
          ],
          [
            127.158283,
            37.8682472
          ],
          [
            127.1582773,
            37.8683363
          ],
          [
            127.1582015,
            37.8685075
          ],
          [
            127.1580679,
            37.8686531
          ],
          [
            127.157953,
            37.8687632
          ],
          [
            127.1577616,
            37.8689491
          ],
          [
            127.1573981,
            37.8692527
          ],
          [
            127.157109,
            37.8694483
          ],
          [
            127.1569703,
            37.8695553
          ],
          [
            127.1569264,
            37.869573
          ],
          [
            127.1567103,
            37.8696602
          ],
          [
            127.1565397,
            37.869775
          ],
          [
            127.1561452,
            37.8700245
          ],
          [
            127.1558933,
            37.8702019
          ],
          [
            127.1556287,
            37.8704548
          ],
          [
            127.1556138,
            37.8704691
          ],
          [
            127.1553164,
            37.8707135
          ],
          [
            127.155296,
            37.8707277
          ],
          [
            127.1550644,
            37.8708887
          ],
          [
            127.1549472,
            37.8710057
          ],
          [
            127.1548344,
            37.8711118
          ],
          [
            127.154686,
            37.8712599
          ],
          [
            127.1546571,
            37.8713617
          ],
          [
            127.1547095,
            37.8714809
          ],
          [
            127.1550143,
            37.8717981
          ],
          [
            127.1551726,
            37.8719446
          ],
          [
            127.1552621,
            37.8720328
          ],
          [
            127.1553826,
            37.872155
          ],
          [
            127.1555594,
            37.8723513
          ]
        ]
      },
      "id": "way/471499232"
    },
    {
      "type": "Feature",
      "properties": {
        "@id": "way/471499233",
        "highway": "service"
      },
      "geometry": {
        "type": "LineString",
        "coordinates": [
          [
            127.1555594,
            37.8723513
          ],
          [
            127.1556057,
            37.8724015
          ],
          [
            127.1562149,
            37.8730615
          ],
          [
            127.1563026,
            37.8731566
          ],
          [
            127.1564029,
            37.873248
          ],
          [
            127.1566427,
            37.8734971
          ],
          [
            127.1567059,
            37.8735646
          ],
          [
            127.1568292,
            37.8736464
          ],
          [
            127.1569579,
            37.8736983
          ],
          [
            127.1571237,
            37.8737593
          ],
          [
            127.1572549,
            37.8738782
          ],
          [
            127.1574041,
            37.8740802
          ],
          [
            127.157432,
            37.8741792
          ],
          [
            127.1573955,
            37.8742868
          ],
          [
            127.1572393,
            37.8744913
          ],
          [
            127.1571666,
            37.8746591
          ],
          [
            127.1571524,
            37.8748336
          ],
          [
            127.1572729,
            37.8750609
          ],
          [
            127.1574193,
            37.8752449
          ],
          [
            127.15761,
            37.8753993
          ],
          [
            127.157738,
            37.875457
          ],
          [
            127.1578625,
            37.8754977
          ],
          [
            127.157966,
            37.8755976
          ],
          [
            127.157667,
            37.8758079
          ],
          [
            127.1571092,
            37.8762
          ],
          [
            127.156661,
            37.8765152
          ],
          [
            127.1566179,
            37.8765485
          ],
          [
            127.1563729,
            37.8767381
          ]
        ]
      },
      "id": "way/471499233"
    },
    {
      "type": "Feature",
      "properties": {
        "@id": "way/471499234",
        "highway": "service"
      },
      "geometry": {
        "type": "LineString",
        "coordinates": [
          [
            127.1563026,
            37.8731566
          ],
          [
            127.1555785,
            37.873623
          ],
          [
            127.1554176,
            37.8737266
          ],
          [
            127.1548488,
            37.8740968
          ]
        ]
      },
      "id": "way/471499234"
    },
    {
      "type": "Feature",
      "properties": {
        "@id": "way/471499235",
        "highway": "service"
      },
      "geometry": {
        "type": "LineString",
        "coordinates": [
          [
            127.1551726,
            37.8719446
          ],
          [
            127.1555489,
            37.8717179
          ],
          [
            127.1559266,
            37.8714817
          ],
          [
            127.1562464,
            37.8712828
          ],
          [
            127.1566696,
            37.8710187
          ],
          [
            127.1571311,
            37.8707308
          ],
          [
            127.1574642,
            37.8705229
          ],
          [
            127.1576277,
            37.8704209
          ],
          [
            127.1578672,
            37.8702715
          ],
          [
            127.1579324,
            37.8702308
          ],
          [
            127.1580955,
            37.8701631
          ],
          [
            127.1583725,
            37.8701213
          ],
          [
            127.1586822,
            37.8700584
          ],
          [
            127.15896,
            37.869874
          ],
          [
            127.1591357,
            37.8697443
          ],
          [
            127.1592341,
            37.8696381
          ],
          [
            127.1588962,
            37.8692681
          ],
          [
            127.1586271,
            37.8689735
          ],
          [
            127.1583488,
            37.8686688
          ],
          [
            127.1582015,
            37.8685075
          ]
        ]
      },
      "id": "way/471499235"
    },
    {
      "type": "Feature",
      "properties": {
        "@id": "way/471499236",
        "highway": "service",
        "oneway": "yes"
      },
      "geometry": {
        "type": "LineString",
        "coordinates": [
          [
            127.1555489,
            37.8717179
          ],
          [
            127.1554616,
            37.8718389
          ],
          [
            127.155439,
            37.8718877
          ],
          [
            127.1554131,
            37.8719454
          ],
          [
            127.1553977,
            37.8720073
          ],
          [
            127.1553883,
            37.8720694
          ],
          [
            127.1553826,
            37.872155
          ]
        ]
      },
      "id": "way/471499236"
    },
    {
      "type": "Feature",
      "properties": {
        "@id": "way/471499237",
        "highway": "tertiary"
      },
      "geometry": {
        "type": "LineString",
        "coordinates": [
          [
            127.1550644,
            37.8708887
          ],
          [
            127.1549114,
            37.8706776
          ],
          [
            127.1548313,
            37.8704246
          ],
          [
            127.1548374,
            37.8702787
          ],
          [
            127.1548805,
            37.8699382
          ],
          [
            127.1551209,
            37.8695588
          ],
          [
            127.155355,
            37.8692912
          ],
          [
            127.1556312,
            37.8689367
          ]
        ]
      },
      "id": "way/471499237"
    },
    {
      "type": "Feature",
      "properties": {
        "@id": "way/471499241",
        "highway": "tertiary"
      },
      "geometry": {
        "type": "LineString",
        "coordinates": [
          [
            127.1607828,
            37.8755371
          ],
          [
            127.1625485,
            37.8745355
          ],
          [
            127.1628627,
            37.8747687
          ],
          [
            127.1634196,
            37.875266
          ],
          [
            127.1638253,
            37.875143
          ],
          [
            127.1645615,
            37.8748916
          ],
          [
            127.164788,
            37.8748637
          ],
          [
            127.1651278,
            37.8748581
          ],
          [
            127.1655596,
            37.8748134
          ],
          [
            127.1660338,
            37.8746178
          ],
          [
            127.1663099,
            37.8742882
          ],
          [
            127.1663295,
            37.8741207
          ],
          [
            127.1663523,
            37.873925
          ],
          [
            127.1664585,
            37.8735171
          ],
          [
            127.1666355,
            37.8733383
          ],
          [
            127.1668832,
            37.8730366
          ],
          [
            127.167046,
            37.8726622
          ],
          [
            127.1670743,
            37.8721817
          ],
          [
            127.1672796,
            37.8718073
          ],
          [
            127.1677114,
            37.8714497
          ],
          [
            127.1681007,
            37.8712933
          ],
          [
            127.1692545,
            37.8711033
          ],
          [
            127.1700027,
            37.8709673
          ],
          [
            127.1702468,
            37.8709229
          ],
          [
            127.1717744,
            37.8706451
          ],
          [
            127.1721283,
            37.8705445
          ],
          [
            127.1734107,
            37.8697619
          ],
          [
            127.1746928,
            37.8689795
          ],
          [
            127.175944,
            37.8682159
          ],
          [
            127.1761898,
            37.8680484
          ],
          [
            127.176261,
            37.8679948
          ]
        ]
      },
      "id": "way/471499241"
    },
    {
      "type": "Feature",
      "properties": {
        "@id": "way/471499242",
        "highway": "service"
      },
      "geometry": {
        "type": "LineString",
        "coordinates": [
          [
            127.1578625,
            37.8754977
          ],
          [
            127.1583359,
            37.8751515
          ],
          [
            127.1586236,
            37.8749376
          ],
          [
            127.1587775,
            37.8748404
          ],
          [
            127.1593997,
            37.8745405
          ],
          [
            127.1596654,
            37.8744125
          ]
        ]
      },
      "id": "way/471499242"
    },
    {
      "type": "Feature",
      "properties": {
        "@id": "way/1100968092",
        "highway": "path",
        "surface": "ground"
      },
      "geometry": {
        "type": "LineString",
        "coordinates": [
          [
            127.154686,
            37.8712599
          ],
          [
            127.1542013,
            37.8713265
          ],
          [
            127.1538882,
            37.8714026
          ],
          [
            127.1537519,
            37.8715515
          ],
          [
            127.1536374,
            37.8715865
          ],
          [
            127.1535245,
            37.8717087
          ],
          [
            127.1534201,
            37.8717686
          ],
          [
            127.1533424,
            37.8719274
          ],
          [
            127.1533772,
            37.8720057
          ],
          [
            127.1533224,
            37.8721059
          ],
          [
            127.1532109,
            37.8721243
          ],
          [
            127.1531036,
            37.8720967
          ],
          [
            127.1529261,
            37.8721196
          ],
          [
            127.1528247,
            37.8722449
          ],
          [
            127.1527281,
            37.8724503
          ],
          [
            127.152624,
            37.8725292
          ],
          [
            127.152468,
            37.8726112
          ],
          [
            127.1523833,
            37.8726951
          ],
          [
            127.1524608,
            37.8732325
          ],
          [
            127.1523768,
            37.8733629
          ],
          [
            127.1523178,
            37.8734624
          ],
          [
            127.1522507,
            37.8734878
          ],
          [
            127.15213,
            37.8735005
          ],
          [
            127.1520174,
            37.8736063
          ],
          [
            127.1518415,
            37.8736455
          ],
          [
            127.1518832,
            37.8738138
          ],
          [
            127.1519771,
            37.8738879
          ],
          [
            127.1520334,
            37.874015
          ],
          [
            127.1520273,
            37.8741059
          ],
          [
            127.1520033,
            37.8746843
          ],
          [
            127.1518296,
            37.8749466
          ],
          [
            127.1517652,
            37.8750503
          ],
          [
            127.1517692,
            37.8751375
          ],
          [
            127.151685,
            37.8753371
          ],
          [
            127.1515828,
            37.8754441
          ],
          [
            127.1514809,
            37.8754462
          ],
          [
            127.1512515,
            37.8753846
          ],
          [
            127.1506616,
            37.875147
          ],
          [
            127.1499488,
            37.8750012
          ],
          [
            127.149834,
            37.8750821
          ],
          [
            127.1496919,
            37.8751667
          ],
          [
            127.1495873,
            37.8751921
          ],
          [
            127.1493959,
            37.8753424
          ],
          [
            127.1491446,
            37.8756507
          ],
          [
            127.1491045,
            37.8758824
          ],
          [
            127.1489999,
            37.8759692
          ],
          [
            127.148952,
            37.8760594
          ],
          [
            127.1490696,
            37.8761798
          ],
          [
            127.1490777,
            37.8763164
          ],
          [
            127.1490079,
            37.8764074
          ],
          [
            127.148976,
            37.8766201
          ],
          [
            127.1488604,
            37.8766975
          ],
          [
            127.1487451,
            37.8767885
          ],
          [
            127.1486698,
            37.87679
          ],
          [
            127.1485761,
            37.8767949
          ],
          [
            127.148509,
            37.8768266
          ],
          [
            127.14845,
            37.8768986
          ],
          [
            127.1483642,
            37.8769939
          ],
          [
            127.1483018,
            37.8769812
          ],
          [
            127.1481845,
            37.877087
          ],
          [
            127.1481362,
            37.8771844
          ],
          [
            127.1480851,
            37.8774088
          ],
          [
            127.1480772,
            37.8775486
          ],
          [
            127.148037,
            37.8776184
          ],
          [
            127.1479767,
            37.8776369
          ],
          [
            127.1479002,
            37.8777264
          ],
          [
            127.147817,
            37.8777814
          ],
          [
            127.1476383,
            37.8778364
          ],
          [
            127.1475193,
            37.8778534
          ],
          [
            127.1474066,
            37.8779142
          ]
        ]
      },
      "id": "way/1100968092"
    },
    {
      "type": "Feature",
      "properties": {
        "@id": "way/1189921323",
        "highway": "service",
        "service": "parking_aisle"
      },
      "geometry": {
        "type": "LineString",
        "coordinates": [
          [
            127.1592341,
            37.8696381
          ],
          [
            127.1593821,
            37.8697239
          ],
          [
            127.1594969,
            37.8698546
          ],
          [
            127.1595303,
            37.8700426
          ],
          [
            127.1594479,
            37.8700979
          ],
          [
            127.1593168,
            37.8701859
          ],
          [
            127.1591977,
            37.8700541
          ],
          [
            127.1594969,
            37.8698546
          ]
        ]
      },
      "id": "way/1189921323"
    },
    {
      "type": "Feature",
      "properties": {
        "@id": "way/1189921326",
        "highway": "service",
        "service": "parking_aisle"
      },
      "geometry": {
        "type": "LineString",
        "coordinates": [
          [
            127.1583725,
            37.8701213
          ],
          [
            127.158355,
            37.8702587
          ],
          [
            127.15806,
            37.8704591
          ],
          [
            127.1578672,
            37.8702715
          ]
        ]
      },
      "id": "way/1189921326"
    },
    {
      "type": "Feature",
      "properties": {
        "@id": "way/1189921330",
        "highway": "service"
      },
      "geometry": {
        "type": "LineString",
        "coordinates": [
          [
            127.1594479,
            37.8700979
          ],
          [
            127.1594832,
            37.870377
          ],
          [
            127.1594687,
            37.870557
          ],
          [
            127.1591971,
            37.8707726
          ],
          [
            127.1589807,
            37.87058
          ],
          [
            127.1589894,
            37.8703747
          ],
          [
            127.1586822,
            37.8700584
          ]
        ]
      },
      "id": "way/1189921330"
    },
    {
      "type": "Feature",
      "properties": {
        "@id": "way/1189921332",
        "highway": "service"
      },
      "geometry": {
        "type": "LineString",
        "coordinates": [
          [
            127.1589807,
            37.87058
          ],
          [
            127.1588155,
            37.8706777
          ],
          [
            127.1590397,
            37.8709137
          ]
        ]
      },
      "id": "way/1189921332"
    },
    {
      "type": "Feature",
      "properties": {
        "@id": "way/1189921333",
        "highway": "service"
      },
      "geometry": {
        "type": "LineString",
        "coordinates": [
          [
            127.15806,
            37.8704591
          ],
          [
            127.1585815,
            37.8709775
          ],
          [
            127.1588124,
            37.8709912
          ],
          [
            127.1589751,
            37.8709626
          ],
          [
            127.1590397,
            37.8709137
          ]
        ]
      },
      "id": "way/1189921333"
    },
    {
      "type": "Feature",
      "properties": {
        "@id": "way/1189924004",
        "highway": "service",
        "service": "parking_aisle"
      },
      "geometry": {
        "type": "LineString",
        "coordinates": [
          [
            127.1576277,
            37.8704209
          ],
          [
            127.1580386,
            37.870836
          ],
          [
            127.1584041,
            37.8712052
          ]
        ]
      },
      "id": "way/1189924004"
    },
    {
      "type": "Feature",
      "properties": {
        "@id": "way/1189924005",
        "highway": "service",
        "service": "parking_aisle"
      },
      "geometry": {
        "type": "LineString",
        "coordinates": [
          [
            127.1580386,
            37.870836
          ],
          [
            127.1578898,
            37.8709398
          ],
          [
            127.1582366,
            37.8713105
          ]
        ]
      },
      "id": "way/1189924005"
    },
    {
      "type": "Feature",
      "properties": {
        "@id": "way/1189924008",
        "highway": "service",
        "service": "parking_aisle"
      },
      "geometry": {
        "type": "LineString",
        "coordinates": [
          [
            127.1571311,
            37.8707308
          ],
          [
            127.1578824,
            37.8715198
          ]
        ]
      },
      "id": "way/1189924008"
    },
    {
      "type": "Feature",
      "properties": {
        "@id": "way/1189924010",
        "highway": "service",
        "service": "parking_aisle"
      },
      "geometry": {
        "type": "LineString",
        "coordinates": [
          [
            127.1583725,
            37.8701213
          ],
          [
            127.1581952,
            37.8699158
          ],
          [
            127.1580354,
            37.8697885
          ],
          [
            127.1578582,
            37.8698458
          ]
        ]
      },
      "id": "way/1189924010"
    },
    {
      "type": "Feature",
      "properties": {
        "@id": "way/1189924014",
        "highway": "service",
        "service": "parking_aisle"
      },
      "geometry": {
        "type": "LineString",
        "coordinates": [
          [
            127.1574642,
            37.8705229
          ],
          [
            127.1573116,
            37.8703526
          ]
        ]
      },
      "id": "way/1189924014"
    },
    {
      "type": "Feature",
      "properties": {
        "@id": "way/1189924015",
        "highway": "service",
        "oneway": "yes",
        "service": "parking_aisle"
      },
      "geometry": {
        "type": "LineString",
        "coordinates": [
          [
            127.1573116,
            37.8703526
          ],
          [
            127.1572326,
            37.8703601
          ],
          [
            127.1570226,
            37.8701151
          ],
          [
            127.1570462,
            37.8700267
          ],
          [
            127.1571653,
            37.8699605
          ],
          [
            127.1572609,
            37.8699447
          ],
          [
            127.157498,
            37.8701766
          ],
          [
            127.1573859,
            37.8702297
          ],
          [
            127.1573116,
            37.8703526
          ]
        ]
      },
      "id": "way/1189924015"
    },
    {
      "type": "Feature",
      "properties": {
        "@id": "way/1189924018",
        "highway": "service",
        "service": "parking_aisle"
      },
      "geometry": {
        "type": "LineString",
        "coordinates": [
          [
            127.1566696,
            37.8710187
          ],
          [
            127.1565687,
            37.870908
          ],
          [
            127.1560937,
            37.8703867
          ],
          [
            127.1558778,
            37.8705022
          ],
          [
            127.1556832,
            37.8705059
          ],
          [
            127.1556287,
            37.8704548
          ]
        ]
      },
      "id": "way/1189924018"
    },
    {
      "type": "Feature",
      "properties": {
        "@id": "way/1189924019",
        "highway": "service",
        "oneway": "yes",
        "service": "parking_aisle"
      },
      "geometry": {
        "type": "LineString",
        "coordinates": [
          [
            127.1565687,
            37.870908
          ],
          [
            127.1562613,
            37.8710814
          ],
          [
            127.1557796,
            37.8706119
          ],
          [
            127.155754,
            37.8705869
          ],
          [
            127.1556832,
            37.8705059
          ]
        ]
      },
      "id": "way/1189924019"
    },
    {
      "type": "Feature",
      "properties": {
        "@id": "way/1189924020",
        "highway": "service",
        "oneway": "yes",
        "service": "parking_aisle"
      },
      "geometry": {
        "type": "LineString",
        "coordinates": [
          [
            127.1557796,
            37.8706119
          ],
          [
            127.1558625,
            37.870532
          ],
          [
            127.1558778,
            37.8705022
          ]
        ]
      },
      "id": "way/1189924020"
    },
    {
      "type": "Feature",
      "properties": {
        "@id": "way/1189924022",
        "highway": "service",
        "service": "parking_aisle"
      },
      "geometry": {
        "type": "LineString",
        "coordinates": [
          [
            127.1559266,
            37.8714817
          ],
          [
            127.1558483,
            37.8712871
          ],
          [
            127.155296,
            37.8707277
          ]
        ]
      },
      "id": "way/1189924022"
    },
    {
      "type": "Feature",
      "properties": {
        "@id": "way/1189924023",
        "highway": "service"
      },
      "geometry": {
        "type": "LineString",
        "coordinates": [
          [
            127.1546571,
            37.8713617
          ],
          [
            127.1545972,
            37.871448
          ],
          [
            127.154672,
            37.8718546
          ],
          [
            127.1544298,
            37.8721153
          ],
          [
            127.1544254,
            37.8722039
          ],
          [
            127.1545597,
            37.8723238
          ]
        ]
      },
      "id": "way/1189924023"
    },
    {
      "type": "Feature",
      "properties": {
        "@id": "way/1189924026",
        "highway": "service",
        "service": "parking_aisle"
      },
      "geometry": {
        "type": "LineString",
        "coordinates": [
          [
            127.1563028,
            37.8713444
          ],
          [
            127.157053,
            37.8721639
          ],
          [
            127.1570443,
            37.8722476
          ],
          [
            127.1567335,
            37.8724207
          ],
          [
            127.1560291,
            37.8716445
          ],
          [
            127.1560037,
            37.8715832
          ],
          [
            127.1559855,
            37.871539
          ],
          [
            127.1559266,
            37.8714817
          ]
        ]
      },
      "id": "way/1189924026"
    },
    {
      "type": "Feature",
      "properties": {
        "@id": "way/1189924027",
        "highway": "service",
        "oneway": "yes",
        "service": "parking_aisle"
      },
      "geometry": {
        "type": "LineString",
        "coordinates": [
          [
            127.1563028,
            37.8713444
          ],
          [
            127.1559855,
            37.871539
          ]
        ]
      },
      "id": "way/1189924027"
    },
    {
      "type": "Feature",
      "properties": {
        "@id": "way/1189924028",
        "highway": "service",
        "service": "parking_aisle"
      },
      "geometry": {
        "type": "LineString",
        "coordinates": [
          [
            127.1560037,
            37.8715832
          ],
          [
            127.1558709,
            37.8716797
          ],
          [
            127.1565325,
            37.8723709
          ]
        ]
      },
      "id": "way/1189924028"
    },
    {
      "type": "Feature",
      "properties": {
        "@id": "way/1189924030",
        "highway": "service",
        "service": "parking_aisle"
      },
      "geometry": {
        "type": "LineString",
        "coordinates": [
          [
            127.1556057,
            37.8724015
          ],
          [
            127.1558268,
            37.8723098
          ],
          [
            127.1559306,
            37.8722409
          ],
          [
            127.1563046,
            37.872606
          ],
          [
            127.1562834,
            37.8726832
          ],
          [
            127.1564155,
            37.8728658
          ],
          [
            127.1563176,
            37.8729952
          ],
          [
            127.1562149,
            37.8730615
          ]
        ]
      },
      "id": "way/1189924030"
    },
    {
      "type": "Feature",
      "properties": {
        "@id": "way/1189924031",
        "highway": "service",
        "service": "parking_aisle"
      },
      "geometry": {
        "type": "LineString",
        "coordinates": [
          [
            127.1558268,
            37.8723098
          ],
          [
            127.1558599,
            37.8723694
          ],
          [
            127.1561654,
            37.8726888
          ],
          [
            127.1562834,
            37.8726832
          ]
        ]
      },
      "id": "way/1189924031"
    },
    {
      "type": "Feature",
      "properties": {
        "@id": "way/1189924036",
        "highway": "service",
        "service": "parking_aisle"
      },
      "geometry": {
        "type": "LineString",
        "coordinates": [
          [
            127.1555785,
            37.873623
          ],
          [
            127.1548905,
            37.8729396
          ],
          [
            127.1550765,
            37.872797
          ]
        ]
      },
      "id": "way/1189924036"
    },
    {
      "type": "Feature",
      "properties": {
        "@id": "way/1189924038",
        "highway": "service",
        "service": "parking_aisle"
      },
      "geometry": {
        "type": "LineString",
        "coordinates": [
          [
            127.1548488,
            37.8740968
          ],
          [
            127.154794,
            37.8739992
          ]
        ]
      },
      "id": "way/1189924038"
    },
    {
      "type": "Feature",
      "properties": {
        "@id": "way/1189924039",
        "highway": "service",
        "oneway": "yes",
        "service": "parking_aisle"
      },
      "geometry": {
        "type": "LineString",
        "coordinates": [
          [
            127.154794,
            37.8739992
          ],
          [
            127.1547323,
            37.8739623
          ],
          [
            127.1543152,
            37.8735817
          ],
          [
            127.1543986,
            37.8735158
          ],
          [
            127.1548191,
            37.8738991
          ],
          [
            127.154794,
            37.8739992
          ]
        ]
      },
      "id": "way/1189924039"
    },
    {
      "type": "Feature",
      "properties": {
        "@id": "way/1189924044",
        "highway": "service"
      },
      "geometry": {
        "type": "LineString",
        "coordinates": [
          [
            127.1572393,
            37.8744913
          ],
          [
            127.1569312,
            37.8746621
          ],
          [
            127.1563457,
            37.8750236
          ],
          [
            127.1560026,
            37.8752057
          ],
          [
            127.1555994,
            37.8754198
          ]
        ]
      },
      "id": "way/1189924044"
    },
    {
      "type": "Feature",
      "properties": {
        "@id": "way/1189924045",
        "highway": "service",
        "service": "parking_aisle"
      },
      "geometry": {
        "type": "LineString",
        "coordinates": [
          [
            127.1563457,
            37.8750236
          ],
          [
            127.1562752,
            37.8749628
          ],
          [
            127.1564895,
            37.8747912
          ],
          [
            127.1568872,
            37.8744727
          ],
          [
            127.1559626,
            37.8735413
          ],
          [
            127.1557425,
            37.8736456
          ],
          [
            127.1555785,
            37.873623
          ]
        ]
      },
      "id": "way/1189924045"
    },
    {
      "type": "Feature",
      "properties": {
        "@id": "way/1189924046",
        "highway": "service",
        "service": "parking_aisle"
      },
      "geometry": {
        "type": "LineString",
        "coordinates": [
          [
            127.1564895,
            37.8747912
          ],
          [
            127.1554176,
            37.8737266
          ]
        ]
      },
      "id": "way/1189924046"
    },
    {
      "type": "Feature",
      "properties": {
        "@id": "way/1189924047",
        "highway": "service",
        "service": "parking_aisle"
      },
      "geometry": {
        "type": "LineString",
        "coordinates": [
          [
            127.1562752,
            37.8749628
          ],
          [
            127.1561898,
            37.8749151
          ],
          [
            127.1557535,
            37.8744987
          ]
        ]
      },
      "id": "way/1189924047"
    },
    {
      "type": "Feature",
      "properties": {
        "@id": "way/1189924048",
        "highway": "service",
        "service": "parking_aisle"
      },
      "geometry": {
        "type": "LineString",
        "coordinates": [
          [
            127.1560026,
            37.8752057
          ],
          [
            127.1548488,
            37.8740968
          ]
        ]
      },
      "id": "way/1189924048"
    },
    {
      "type": "Feature",
      "properties": {
        "@id": "way/1189924049",
        "highway": "service"
      },
      "geometry": {
        "type": "LineString",
        "coordinates": [
          [
            127.1548488,
            37.8740968
          ],
          [
            127.1545668,
            37.8742576
          ],
          [
            127.1544882,
            37.874448
          ],
          [
            127.1542686,
            37.8746277
          ],
          [
            127.1547298,
            37.8750688
          ],
          [
            127.1547809,
            37.8751177
          ],
          [
            127.1549056,
            37.8751262
          ],
          [
            127.1550465,
            37.8750556
          ],
          [
            127.1551224,
            37.8750471
          ],
          [
            127.1552633,
            37.875154
          ],
          [
            127.1554476,
            37.8752375
          ],
          [
            127.1555994,
            37.8754198
          ]
        ]
      },
      "id": "way/1189924049"
    },
    {
      "type": "Feature",
      "properties": {
        "@id": "way/1189924051",
        "highway": "service",
        "service": "parking_aisle"
      },
      "geometry": {
        "type": "LineString",
        "coordinates": [
          [
            127.1547298,
            37.8750688
          ],
          [
            127.1549173,
            37.8748417
          ],
          [
            127.1544882,
            37.874448
          ]
        ]
      },
      "id": "way/1189924051"
    },
    {
      "type": "Feature",
      "properties": {
        "@id": "way/1189924054",
        "highway": "service"
      },
      "geometry": {
        "type": "LineString",
        "coordinates": [
          [
            127.1547809,
            37.8751177
          ],
          [
            127.1546715,
            37.8751079
          ],
          [
            127.1545103,
            37.8750162
          ]
        ]
      },
      "id": "way/1189924054"
    },
    {
      "type": "Feature",
      "properties": {
        "@id": "way/1189924055",
        "highway": "service",
        "service": "parking_aisle"
      },
      "geometry": {
        "type": "LineString",
        "coordinates": [
          [
            127.1554476,
            37.8752375
          ],
          [
            127.1552519,
            37.8750375
          ],
          [
            127.1551929,
            37.8749091
          ]
        ]
      },
      "id": "way/1189924055"
    },
    {
      "type": "Feature",
      "properties": {
        "@id": "way/1189924056",
        "highway": "service"
      },
      "geometry": {
        "type": "LineString",
        "coordinates": [
          [
            127.157432,
            37.8741792
          ],
          [
            127.1575172,
            37.8743423
          ],
          [
            127.1577425,
            37.8746796
          ],
          [
            127.157767,
            37.8746991
          ],
          [
            127.1583359,
            37.8751515
          ]
        ]
      },
      "id": "way/1189924056"
    },
    {
      "type": "Feature",
      "properties": {
        "@id": "way/1189924057",
        "highway": "service"
      },
      "geometry": {
        "type": "LineString",
        "coordinates": [
          [
            127.157966,
            37.8755976
          ],
          [
            127.1589237,
            37.876488
          ],
          [
            127.1590757,
            37.8766293
          ],
          [
            127.1606899,
            37.8755965
          ],
          [
            127.1607828,
            37.8755371
          ]
        ]
      },
      "id": "way/1189924057"
    },
    {
      "type": "Feature",
      "properties": {
        "@id": "way/1189924061",
        "highway": "service",
        "oneway": "yes"
      },
      "geometry": {
        "type": "LineString",
        "coordinates": [
          [
            127.1564029,
            37.873248
          ],
          [
            127.157105,
            37.8728111
          ],
          [
            127.1573563,
            37.8730765
          ],
          [
            127.1566427,
            37.8734971
          ]
        ]
      },
      "id": "way/1189924061"
    },
    {
      "type": "Feature",
      "properties": {
        "@id": "way/1189924062",
        "highway": "service",
        "service": "parking_aisle"
      },
      "geometry": {
        "type": "LineString",
        "coordinates": [
          [
            127.157105,
            37.8728111
          ],
          [
            127.1570631,
            37.8727679
          ],
          [
            127.1571062,
            37.87269
          ]
        ]
      },
      "id": "way/1189924062"
    },
    {
      "type": "Feature",
      "properties": {
        "@id": "way/1189924071",
        "highway": "service",
        "service": "parking_aisle"
      },
      "geometry": {
        "type": "LineString",
        "coordinates": [
          [
            127.1593997,
            37.8745405
          ],
          [
            127.1592003,
            37.8743469
          ],
          [
            127.1590548,
            37.8743785
          ],
          [
            127.1589464,
            37.874402
          ],
          [
            127.1589162,
            37.8744099
          ],
          [
            127.1587489,
            37.8744541
          ],
          [
            127.1586274,
            37.8744862
          ],
          [
            127.1585244,
            37.8745135
          ],
          [
            127.1584745,
            37.8745204
          ],
          [
            127.1583484,
            37.8745381
          ],
          [
            127.1582092,
            37.8745575
          ],
          [
            127.1581006,
            37.8745727
          ],
          [
            127.1580579,
            37.8745827
          ],
          [
            127.1578771,
            37.874625
          ],
          [
            127.157767,
            37.8746991
          ]
        ]
      },
      "id": "way/1189924071"
    },
    {
      "type": "Feature",
      "properties": {
        "@id": "way/1189924072",
        "highway": "service",
        "service": "parking_aisle"
      },
      "geometry": {
        "type": "LineString",
        "coordinates": [
          [
            127.1592003,
            37.8743469
          ],
          [
            127.1591717,
            37.8742241
          ],
          [
            127.1589571,
            37.8738077
          ],
          [
            127.1587715,
            37.8738565
          ],
          [
            127.1586334,
            37.8738929
          ],
          [
            127.1584636,
            37.8739376
          ],
          [
            127.1583428,
            37.8739367
          ],
          [
            127.1582758,
            37.8739362
          ],
          [
            127.1581591,
            37.873954
          ],
          [
            127.1580416,
            37.8739719
          ],
          [
            127.1580076,
            37.8739771
          ],
          [
            127.1578503,
            37.8740378
          ],
          [
            127.1581042,
            37.8744584
          ],
          [
            127.1582092,
            37.8745575
          ]
        ]
      },
      "id": "way/1189924072"
    },
    {
      "type": "Feature",
      "properties": {
        "@id": "way/1189924073",
        "highway": "service",
        "service": "parking_aisle"
      },
      "geometry": {
        "type": "LineString",
        "coordinates": [
          [
            127.1580579,
            37.8745827
          ],
          [
            127.1575999,
            37.8736934
          ],
          [
            127.1576128,
            37.8736001
          ],
          [
            127.157625,
            37.8735113
          ],
          [
            127.1574819,
            37.8732191
          ],
          [
            127.1573563,
            37.8730765
          ]
        ]
      },
      "id": "way/1189924073"
    },
    {
      "type": "Feature",
      "properties": {
        "@id": "way/1189924074",
        "highway": "service",
        "service": "parking_aisle"
      },
      "geometry": {
        "type": "LineString",
        "coordinates": [
          [
            127.1576128,
            37.8736001
          ],
          [
            127.1574851,
            37.8736031
          ],
          [
            127.1573317,
            37.8736786
          ],
          [
            127.1578461,
            37.8745586
          ]
        ]
      },
      "id": "way/1189924074"
    },
    {
      "type": "Feature",
      "properties": {
        "@id": "way/1189924075",
        "highway": "service",
        "service": "parking_aisle"
      },
      "geometry": {
        "type": "LineString",
        "coordinates": [
          [
            127.1583484,
            37.8745381
          ],
          [
            127.1580416,
            37.8739719
          ]
        ]
      },
      "id": "way/1189924075"
    },
    {
      "type": "Feature",
      "properties": {
        "@id": "way/1189924076",
        "highway": "service",
        "service": "parking_aisle"
      },
      "geometry": {
        "type": "LineString",
        "coordinates": [
          [
            127.1584745,
            37.8745204
          ],
          [
            127.1581591,
            37.873954
          ]
        ]
      },
      "id": "way/1189924076"
    },
    {
      "type": "Feature",
      "properties": {
        "@id": "way/1189924077",
        "highway": "service",
        "service": "parking_aisle"
      },
      "geometry": {
        "type": "LineString",
        "coordinates": [
          [
            127.1586274,
            37.8744862
          ],
          [
            127.1583428,
            37.8739367
          ]
        ]
      },
      "id": "way/1189924077"
    },
    {
      "type": "Feature",
      "properties": {
        "@id": "way/1189924078",
        "highway": "service",
        "service": "parking_aisle"
      },
      "geometry": {
        "type": "LineString",
        "coordinates": [
          [
            127.1587489,
            37.8744541
          ],
          [
            127.1584636,
            37.8739376
          ]
        ]
      },
      "id": "way/1189924078"
    },
    {
      "type": "Feature",
      "properties": {
        "@id": "way/1189924079",
        "highway": "service",
        "service": "parking_aisle"
      },
      "geometry": {
        "type": "LineString",
        "coordinates": [
          [
            127.1589162,
            37.8744099
          ],
          [
            127.1586334,
            37.8738929
          ]
        ]
      },
      "id": "way/1189924079"
    },
    {
      "type": "Feature",
      "properties": {
        "@id": "way/1189924080",
        "highway": "service",
        "service": "parking_aisle"
      },
      "geometry": {
        "type": "LineString",
        "coordinates": [
          [
            127.1590548,
            37.8743785
          ],
          [
            127.1587715,
            37.8738565
          ]
        ]
      },
      "id": "way/1189924080"
    },
    {
      "type": "Feature",
      "properties": {
        "@id": "way/1189924083",
        "highway": "service",
        "service": "parking_aisle"
      },
      "geometry": {
        "type": "LineString",
        "coordinates": [
          [
            127.1607828,
            37.8755371
          ],
          [
            127.1606839,
            37.8754574
          ]
        ]
      },
      "id": "way/1189924083"
    },
    {
      "type": "Feature",
      "properties": {
        "@id": "way/1189924084",
        "highway": "service",
        "oneway": "yes",
        "service": "parking_aisle"
      },
      "geometry": {
        "type": "LineString",
        "coordinates": [
          [
            127.1606839,
            37.8754574
          ],
          [
            127.1605606,
            37.8753879
          ],
          [
            127.1598693,
            37.8747085
          ],
          [
            127.1600564,
            37.8745955
          ],
          [
            127.1607653,
            37.8752993
          ],
          [
            127.1606839,
            37.8754574
          ]
        ]
      },
      "id": "way/1189924084"
    },
    {
      "type": "Feature",
      "properties": {
        "@id": "way/1189924085",
        "highway": "service",
        "oneway": "yes",
        "service": "parking_aisle"
      },
      "geometry": {
        "type": "LineString",
        "coordinates": [
          [
            127.1596654,
            37.8744125
          ],
          [
            127.1598941,
            37.8744414
          ],
          [
            127.1600564,
            37.8745955
          ]
        ]
      },
      "id": "way/1189924085"
    },
    {
      "type": "Feature",
      "properties": {
        "@id": "way/1189924086",
        "highway": "service"
      },
      "geometry": {
        "type": "LineString",
        "coordinates": [
          [
            127.1606839,
            37.8754574
          ],
          [
            127.160119,
            37.8758331
          ],
          [
            127.1592252,
            37.8749938
          ],
          [
            127.1597734,
            37.8746619
          ],
          [
            127.1598693,
            37.8747085
          ]
        ]
      },
      "id": "way/1189924086"
    },
    {
      "type": "Feature",
      "properties": {
        "@id": "way/1189924096",
        "highway": "service",
        "service": "parking_aisle"
      },
      "geometry": {
        "type": "LineString",
        "coordinates": [
          [
            127.1583313,
            37.8768328
          ],
          [
            127.1583222,
            37.8767107
          ],
          [
            127.158383,
            37.8766556
          ],
          [
            127.1584673,
            37.8765727
          ],
          [
            127.157667,
            37.8758079
          ]
        ]
      },
      "id": "way/1189924096"
    }
  ]
}